STARLINK-1434           
1 45712U 20035BH  26068.24137979  .00054112  00000+0  20295-2 0  9995
2 45712  53.0547  22.1128 0005343  88.0400 272.1210 15.26724568319325
STARLINK-31892          
1 59853U 24097U   26068.55491966 -.00000933  00000+0 -24376-4 0  9991
2 59853  43.0015 275.3387 0001318 275.6883  84.3818 15.27575099101893
